H1 CPF  1  HTS 2022 12 14 12  8481 larets           NONE
H2  0304206 5557    27944 2022 12 14  0  0  0 2022 12 19  0  0  0   180 1 1  0 0 0
H5  0.0560 
H9 
10 0 59930  33480.00000  0    1024319.866    5763022.819    3940091.536
10 0 59930  33660.00000  0    1447327.489    6329708.040    2770605.021
10 0 59930  33840.00000  0    1829312.426    6655195.785    1499429.245
10 0 59930  34020.00000  0    2149943.448    6729165.272     173259.613
10 0 59930  34200.00000  0    2391027.190    6551050.882   -1159268.832
10 0 59930  34380.00000  0    2537424.181    6129959.496   -2449410.858
10 0 59930  34560.00000  0    2577835.259    5484192.560   -3650128.823
10 0 59930  34740.00000  0    2505418.649    4640398.598   -4717821.771
10 0 59930  34920.00000  0    2318206.803    3632406.821   -5613887.553
10 0 59930  35100.00000  0    2019310.495    2499816.821   -6306062.950
10 0 59930  35280.00000  0    1616908.242    1286413.954   -6769510.249
10 0 59930  35460.00000  0    1124027.300      38480.330   -6987627.973
10 0 59930  35640.00000  0     558125.433   -1196937.290   -6952584.336
10 0 59930  35820.00000  0     -59515.120   -2373751.923   -6665566.372
10 0 59930  36000.00000  0    -704560.224   -3448502.455   -6136751.835
10 0 59930  36180.00000  0   -1350548.371   -4381929.063   -5385001.268
10 0 59930  36360.00000  0   -1969939.610   -5140408.161   -4437263.724
10 0 59930  36540.00000  0   -2535260.456   -5697202.801   -3327697.769
10 0 59930  36720.00000  0   -3020301.672   -6033471.505   -2096512.251
10 0 59930  36900.00000  0   -3401316.153   -6138985.879    -788553.730
10 0 59930  37080.00000  0   -3658159.073   -6012512.275     548323.379
10 0 59930  37260.00000  0   -3775304.300   -5661820.032    1865042.377
10 0 59930  37440.00000  0   -3742679.011   -5103306.209    3113164.594
10 0 59930  37620.00000  0   -3556267.435   -4361250.898    4246735.054
10 0 59930  37800.00000  0   -3218450.848   -3466744.722    5224027.543
10 0 59930  37980.00000  0   -2738066.564   -2456343.983    6009110.574
10 0 59930  38160.00000  0   -2130184.865   -1370530.379    6573171.825
10 0 59930  38340.00000  0   -1415616.606    -252048.383    6895563.666
10 0 59930  38520.00000  0    -620172.639     855811.161    6964530.370
10 0 59930  38700.00000  0     226286.374    1910902.448    6777610.588
10 0 59930  38880.00000  0    1090984.618    2873842.239    6341716.080
10 0 59930  39060.00000  0    1939511.018    3709493.980    5672878.537
10 0 59930  39240.00000  0    2737197.450    4388271.326    4795676.207
10 0 59930  39420.00000  0    3450549.272    4887216.215    3742346.683
10 0 59930  39600.00000  0    4048666.126    5190804.311    2551610.318
10 0 59930  39780.00000  0    4504597.447    5291449.359    1267234.591
10 0 59930  39960.00000  0    4796552.506    5189667.245     -63611.502
10 0 59930  40140.00000  0    4908909.055    4893899.278   -1392139.395
10 0 59930  40320.00000  0    4832964.004    4419994.708   -2669777.550
10 0 59930  40500.00000  0    4567394.986    3790395.174   -3849978.048
10 0 59930  40680.00000  0    4118410.397    3033066.677   -4889918.586
10 0 59930  40860.00000  0    3499590.038    2180239.574   -5752027.921
10 0 59930  41040.00000  0    2731435.674    1267023.912   -6405285.407
10 0 59930  41220.00000  0    1840656.323     329966.960   -6826259.112
10 0 59930  41400.00000  0     859228.214    -594385.222   -6999866.601
10 0 59930  41580.00000  0    -176738.405   -1470876.349   -6919860.195
10 0 59930  41760.00000  0   -1228293.661   -2267035.901   -6589026.947
10 0 59930  41940.00000  0   -2255066.536   -2954249.476   -6019112.013
10 0 59930  42120.00000  0   -3216772.550   -3508775.326   -5230458.189
10 0 59930  42300.00000  0   -4074771.261   -3912577.787   -4251364.400
10 0 59930  42480.00000  0   -4793624.856   -4153947.119   -3117154.934
10 0 59930  42660.00000  0   -5342591.147   -4227873.311   -1868973.068
10 0 59930  42840.00000  0   -5696982.431   -4136150.220    -552324.302
10 0 59930  43020.00000  0   -5839316.769   -3887195.025     784584.416
10 0 59930  43200.00000  0   -5760194.802   -3495584.425    2092648.100
10 0 59930  43380.00000  0   -5458840.844   -2981320.453    3323730.993
10 0 59930  43560.00000  0   -4943274.806   -2368864.181    4432501.453
10 0 59930  43740.00000  0   -4230105.741   -1685989.782    5378152.482
10 0 59930  43920.00000  0   -3343961.364    -962522.269    6125925.651
10 0 59930  44100.00000  0   -2316590.816    -229025.933    6648390.734
10 0 59930  44280.00000  0   -1185673.521     484500.370    6926435.099
10 0 59930  44460.00000  0       6604.508    1149855.445    6949932.007
10 0 59930  44640.00000  0    1215148.030    1741754.773    6718087.615
10 0 59930  44820.00000  0    2393674.402    2238799.034    6239458.755
10 0 59930  45000.00000  0    3496500.799    2624255.285    5531643.114
10 0 59930  45180.00000  0    4480338.663    2886628.208    4620650.129
10 0 59930  45360.00000  0    5306024.816    3020002.424    3539961.528
10 0 59930  45540.00000  0    5940126.495    3024141.471    2329306.051
10 0 59930  45720.00000  0    6356335.463    2904333.458    1033178.765
10 0 59930  45900.00000  0    6536585.348    2670996.335    -300830.675
10 0 59930  46080.00000  0    6471829.619    2339056.292   -1623837.890
10 0 59930  46260.00000  0    6162439.489    1927136.048   -2887498.983
10 0 59930  46440.00000  0    5618216.836    1456602.608   -4045805.309
10 0 59930  46620.00000  0    4858019.245     950518.779   -5056761.390
10 0 59930  46800.00000  0    3909027.096     432559.433   -5883872.234
10 0 59930  46980.00000  0    2805707.784     -74051.245   -6497394.855
10 0 59930  47160.00000  0    1588526.923    -547537.650   -6875329.394
10 0 59930  47340.00000  0     302464.057    -968469.482   -7004132.719
10 0 59930  47520.00000  0   -1004619.547   -1320527.045   -6879152.808
10 0 59930  47700.00000  0   -2283711.669   -1591112.195   -6504780.865
10 0 59930  47880.00000  0   -3486434.144   -1771791.309   -5894322.250
10 0 59930  48060.00000  0   -4566832.780   -1858557.362   -5069586.547
10 0 59930  48240.00000  0   -5483130.724   -1851904.858   -4060195.287
10 0 59930  48420.00000  0   -6199379.196   -1756709.340   -2902602.090
10 0 59930  48600.00000  0   -6686936.070   -1581912.077   -1638839.636
10 0 59930  48780.00000  0   -6925695.839   -1340017.113    -315022.012
10 0 59930  48960.00000  0   -6905000.383   -1046419.549    1020348.642
10 0 59930  49140.00000  0   -6624168.855    -718594.378    2318203.274
10 0 59930  49320.00000  0   -6092607.867    -375190.128    3530771.527
10 0 59930  49500.00000  0   -5329490.859     -35073.530    4613404.414
10 0 59930  49680.00000  0   -4363020.122     283621.509    5526265.104
10 0 59930  49860.00000  0   -3229321.621     564390.583    6235812.610
10 0 59930  50040.00000  0   -1971029.517     793156.516    6716031.071
10 0 59930  50220.00000  0    -635624.304     958930.572    6949363.880
10 0 59930  50400.00000  0     726400.608    1054312.426    6927326.157
10 0 59930  50580.00000  0    2063470.076    1075808.665    6650791.191
10 0 59930  50760.00000  0    3324895.352    1023960.511    6129951.082
10 0 59930  50940.00000  0    4462816.296     903275.497    5383951.284
10 0 59930  51120.00000  0    5434047.802     721966.616    4440203.239
10 0 59930  51300.00000  0    6201764.809     491508.759    3333395.155
10 0 59930  51480.00000  0    6736954.342     226033.995    2104214.488
10 0 59930  51660.00000  0    7019558.510     -58409.754     797830.654
10 0 59930  51840.00000  0    7039257.322    -344698.512    -537803.498
10 0 59930  52020.00000  0    6795845.978    -615526.788   -1853762.955
10 0 59930  52200.00000  0    6299186.352    -854310.204   -3101988.899
10 0 59930  52380.00000  0    5568743.942   -1046047.743   -4237068.045
10 0 59930  52560.00000  0    4632745.542   -1178098.872   -5217877.790
10 0 59930  52740.00000  0    3527013.166   -1240838.197   -6009034.775
10 0 59930  52920.00000  0    2293538.394   -1228164.204   -6582104.407
10 0 59930  53100.00000  0     978865.742   -1137839.440   -6916542.827
10 0 59930  53280.00000  0    -367649.138    -971654.023   -7000361.580
10 0 59930  53460.00000  0   -1695650.176    -735409.990   -6830511.528
10 0 59930  53640.00000  0   -2955610.078    -438725.391   -6412985.819
10 0 59930  53820.00000  0   -4100627.631     -94662.897   -5762638.679
10 0 59930  54000.00000  0   -5088148.588     280806.775   -4902726.718
10 0 59930  54180.00000  0   -5881562.553     669492.178   -3864163.836
10 0 59930  54360.00000  0   -6451616.946    1051799.627   -2684494.372
10 0 59930  54540.00000  0   -6777581.251    1407652.591   -1406594.244
10 0 59930  54720.00000  0   -6848097.332    1717469.650     -77134.412
10 0 59930  54900.00000  0   -6661658.122    1963151.605    1255144.768
10 0 59930  55080.00000  0   -6226674.418    2129025.178    2541268.305
10 0 59930  55260.00000  0   -5561123.269    2202693.945    3733890.452
10 0 59930  55440.00000  0   -4691786.894    2175743.678    4789099.873
10 0 59930  55620.00000  0   -3653125.954    2044264.792    5668076.473
10 0 59930  55800.00000  0   -2485855.525    1809169.324    6338534.661
10 0 59930  55980.00000  0   -1235288.642    1476287.687    6775905.309
10 0 59930  56160.00000  0      50474.669    1056238.594    6964210.202
10 0 59930  56340.00000  0    1322426.264     564081.868    6896614.577
10 0 59930  56520.00000  0    2532533.150      18768.220    6575657.315
10 0 59930  56700.00000  0    3635565.003    -557596.336    6013155.641
10 0 59930  56880.00000  0    4590807.635   -1140648.024    5229783.110
10 0 59930  57060.00000  0    5363598.926   -1704792.756    4254326.656
10 0 59930  57240.00000  0    5926630.214   -2224322.283    3122641.679
10 0 59930  57420.00000  0    6260957.078   -2674572.502    1876329.333
10 0 59930  57600.00000  0    6356666.719   -3033068.017     561182.837
10 0 59930  57780.00000  0    6213171.271   -3280594.842    -774536.895
99
